{"type": "FeatureCollection", "features": [ {"type": "Feature", "properties": {"norad_id": 54234, "name": "NOAA 21 (JPSS-2)", "group": "weather", "lat": -76.43820195775808, "lon": -47.33791175165036, "alt_km": 835.6163486879113, "timestamp": "2025-12-02T13:52:16.919386+00:00", "meta": {"OBJECT_NAME": "NOAA 21 (JPSS-2)", "OBJECT_ID": "2022-150A", "EPOCH": "2025-12-02T05:47:15.155232", "MEAN_MOTION": 14.19519442, "ECCENTRICITY": 0.00025606, "INCLINATION": 98.7446, "RA_OF_ASC_NODE": 272.6812, "ARG_OF_PERICENTER": 57.68, "MEAN_ANOMALY": 302.4624, "EPHEMERIS_TYPE": 0, "CLASSIFICATION_TYPE": "U", "NORAD_CAT_ID": 54234, "ELEMENT_SET_NO": 999, "REV_AT_EPOCH": 15860, "BSTAR": 8.6609096e-05, "MEAN_MOTION_DOT": 1.39e-06, "MEAN_MOTION_DDOT": 0}, "tle": {"line1": "1 54234U 22150A   25336.24114763  .00000139  00000+0  86609-4 0  9990", "line2": "2 54234  98.7446 272.6812 0002560  57.6800 302.4624 14.19519442158606"}}, "geometry": {"type": "Point", "coordinates": [-47.33791175165036, -76.43820195775808]}}, {"type": "Feature", "properties": {"norad_id": 54743, "name": "METEOSAT-12 (MTG-I1)", "group": "weather", "lat": -0.6840065140050606, "lon": -80.56357687049397, "alt_km": 35780.712275909944, "timestamp": "2025-12-02T13:52:16.919398+00:00", "meta": {"OBJECT_NAME": "METEOSAT-12 (MTG-I1)", "OBJECT_ID": "2022-170C", "EPOCH": "2025-12-02T05:13:21.733824", "MEAN_MOTION": 1.00273502, "ECCENTRICITY": 0.00014521, "INCLINATION": 0.7156, "RA_OF_ASC_NODE": 29.7933, "ARG_OF_PERICENTER": 213.3706, "MEAN_ANOMALY": 266.2036, "EPHEMERIS_TYPE": 0, "CLASSIFICATION_TYPE": "U", "NORAD_CAT_ID": 54743, "ELEMENT_SET_NO": 999, "REV_AT_EPOCH": 1100, "BSTAR": 0, "MEAN_MOTION_DOT": 1.4e-07, "MEAN_MOTION_DDOT": 0}, "tle": {"line1": "1 54743U 22170C   25336.21761266  .00000014  00000+0  00000+0 0  9998", "line2": "2 54743   0.7156  29.7933 0001452 213.3706 266.2036  1.00273502 11008"}}, "geometry": {"type": "Point", "coordinates": [-80.56357687049397, -0.6840065140050606]}}, {"type": "Feature", "properties": {"norad_id": 55973, "name": "TIANMU-1 03", "group": "weather", "lat": 76.94596543883581, "lon": -6.370741858210583, "alt_km": 434.4722638553367, "timestamp": "2025-12-02T13:52:16.919409+00:00", "meta": {"OBJECT_NAME": "TIANMU-1 03", "OBJECT_ID": "2023-039A", "EPOCH": "2025-12-02T07:12:00.701568", "MEAN_MOTION": 15.40451718, "ECCENTRICITY": 0.00045339, "INCLINATION": 97.5103, "RA_OF_ASC_NODE": 138.6634, "ARG_OF_PERICENTER": 91.1618, "MEAN_ANOMALY": 269.0147, "EPHEMERIS_TYPE": 0, "CLASSIFICATION_TYPE": "U", "NORAD_CAT_ID": 55973, "ELEMENT_SET_NO": 999, "REV_AT_EPOCH": 15045, "BSTAR": 0.00044929979, "MEAN_MOTION_DOT": 0.00018134, "MEAN_MOTION_DDOT": 0}, "tle": {"line1": "1 55973U 23039A   25336.30000812  .00018134  00000+0  44930-3 0  9998", "line2": "2 55973  97.5103 138.6634 0004533  91.1618 269.0147 15.40451718150458"}}, "geometry": {"type": "Point", "coordinates": [-6.370741858210583, 76.94596543883581]}}, {"type": "Feature", "properties": {"norad_id": 55974, "name": "TIANMU-1 04", "group": "weather", "lat": -22.44731564441665, "lon": -44.97728967966914, "alt_km": 450.861576698363, "timestamp": "2025-12-02T13:52:16.919419+00:00", "meta": {"OBJECT_NAME": "TIANMU-1 04", "OBJECT_ID": "2023-039B", "EPOCH": "2025-12-02T08:19:10.350048", "MEAN_MOTION": 15.40782167, "ECCENTRICITY": 0.00052524, "INCLINATION": 97.5034, "RA_OF_ASC_NODE": 137.9068, "ARG_OF_PERICENTER": 87.0891, "MEAN_ANOMALY": 273.0956, "EPHEMERIS_TYPE": 0, "CLASSIFICATION_TYPE": "U", "NORAD_CAT_ID": 55974, "ELEMENT_SET_NO": 999, "REV_AT_EPOCH": 15046, "BSTAR": 0.00046673526, "MEAN_MOTION_DOT": 0.00019052, "MEAN_MOTION_DDOT": 0}, "tle": {"line1": "1 55974U 23039B   25336.34664757  .00019052  00000+0  46674-3 0  9994", "line2": "2 55974  97.5034 137.9068 0005252  87.0891 273.0956 15.40782167150460"}}, "geometry": {"type": "Point", "coordinates": [-44.97728967966914, -22.44731564441665]}}, {"type": "Feature", "properties": {"norad_id": 55975, "name": "TIANMU-1 05", "group": "weather", "lat": -66.95397551620825, "lon": -59.4241593312228, "alt_km": 454.4421349073509, "timestamp": "2025-12-02T13:52:16.919429+00:00", "meta": {"OBJECT_NAME": "TIANMU-1 05", "OBJECT_ID": "2023-039C", "EPOCH": "2025-12-02T08:07:14.590848", "MEAN_MOTION": 15.40411209, "ECCENTRICITY": 0.00043205, "INCLINATION": 97.508, "RA_OF_ASC_NODE": 138.3901, "ARG_OF_PERICENTER": 107.6798, "MEAN_ANOMALY": 252.492, "EPHEMERIS_TYPE": 0, "CLASSIFICATION_TYPE": "U", "NORAD_CAT_ID": 55975, "ELEMENT_SET_NO": 999, "REV_AT_EPOCH": 15044, "BSTAR": 0.00045615439, "MEAN_MOTION_DOT": 0.00018387, "MEAN_MOTION_DDOT": 0}, "tle": {"line1": "1 55975U 23039C   25336.33836332  .00018387  00000+0  45615-3 0  9998", "line2": "2 55975  97.5080 138.3901 0004320 107.6798 252.4920 15.40411209150449"}}, "geometry": {"type": "Point", "coordinates": [-59.4241593312228, -66.95397551620825]}}, {"type": "Feature", "properties": {"norad_id": 55976, "name": "TIANMU-1 06", "group": "weather", "lat": -8.600782227122503, "lon": -42.05033842398131, "alt_km": 447.56379062852557, "timestamp": "2025-12-02T13:52:16.919439+00:00", "meta": {"OBJECT_NAME": "TIANMU-1 06", "OBJECT_ID": "2023-039D", "EPOCH": "2025-12-02T06:49:17.822784", "MEAN_MOTION": 15.40832565, "ECCENTRICITY": 0.00046612, "INCLINATION": 97.5092, "RA_OF_ASC_NODE": 138.7911, "ARG_OF_PERICENTER": 103.4794, "MEAN_ANOMALY": 256.6971, "EPHEMERIS_TYPE": 0, "CLASSIFICATION_TYPE": "U", "NORAD_CAT_ID": 55976, "ELEMENT_SET_NO": 999, "REV_AT_EPOCH": 15045, "BSTAR": 0.00046153336, "MEAN_MOTION_DOT": 0.00018868, "MEAN_MOTION_DDOT": 0}, "tle": {"line1": "1 55976U 23039D   25336.28423406  .00018868  00000+0  46153-3 0  9999", "line2": "2 55976  97.5092 138.7911 0004661 103.4794 256.6971 15.40832565150451"}}, "geometry": {"type": "Point", "coordinates": [-42.05033842398131, -8.600782227122503]}}, {"type": "Feature", "properties": {"norad_id": 56232, "name": "FENGYUN 3G", "group": "weather", "lat": 47.75502764396592, "lon": 32.22213710774664, "alt_km": 395.8316425211133, "timestamp": "2025-12-02T13:52:16.919470+00:00", "meta": {"OBJECT_NAME": "FENGYUN 3G", "OBJECT_ID": "2023-055A", "EPOCH": "2025-12-02T07:14:40.519104", "MEAN_MOTION": 15.52689854, "ECCENTRICITY": 0.00092347, "INCLINATION": 49.9948, "RA_OF_ASC_NODE": 281.2798, "ARG_OF_PERICENTER": 98.19, "MEAN_ANOMALY": 262.0115, "EPHEMERIS_TYPE": 0, "CLASSIFICATION_TYPE": "U", "NORAD_CAT_ID": 56232, "ELEMENT_SET_NO": 999, "REV_AT_EPOCH": 14940, "BSTAR": 0.00059076858, "MEAN_MOTION_DOT": 0.00036934, "MEAN_MOTION_DDOT": 0}, "tle": {"line1": "1 56232U 23055A   25336.30185786  .00036934  00000+0  59077-3 0  9995", "line2": "2 56232  49.9948 281.2798 0009234  98.1900 262.0115 15.52689854149403"}}, "geometry": {"type": "Point", "coordinates": [32.22213710774664, 47.75502764396592]}}, {"type": "Feature", "properties": {"norad_id": 57166, "name": "METEOR-M2 3", "group": "weather", "lat": 22.20621685470291, "lon": 26.73580882202529, "alt_km": 808.314989330388, "timestamp": "2025-12-02T13:52:16.919482+00:00", "meta": {"OBJECT_NAME": "METEOR-M2 3", "OBJECT_ID": "2023-091A", "EPOCH": "2025-12-02T07:01:15.436992", "MEAN_MOTION": 14.24024014, "ECCENTRICITY": 0.0004457, "INCLINATION": 98.6393, "RA_OF_ASC_NODE": 30.0136, "ARG_OF_PERICENTER": 36.7373, "MEAN_ANOMALY": 323.4111, "EPHEMERIS_TYPE": 0, "CLASSIFICATION_TYPE": "U", "NORAD_CAT_ID": 57166, "ELEMENT_SET_NO": 999, "REV_AT_EPOCH": 12649, "BSTAR": 3.7030668e-05, "MEAN_MOTION_DOT": 4.2e-07, "MEAN_MOTION_DDOT": 0}, "tle": {"line1": "1 57166U 23091A   25336.29253978  .00000042  00000+0  37031-4 0  9997", "line2": "2 57166  98.6393  30.0136 0004457  36.7373 323.4111 14.24024014126496"}}, "geometry": {"type": "Point", "coordinates": [26.73580882202529, 22.20621685470291]}}, {"type": "Feature", "properties": {"norad_id": 57399, "name": "TIANMU-1 07", "group": "weather", "lat": 13.76880712257388, "lon": 24.855799854996775, "alt_km": 483.6289658485848, "timestamp": "2025-12-02T13:52:16.919492+00:00", "meta": {"OBJECT_NAME": "TIANMU-1 07", "OBJECT_ID": "2023-101A", "EPOCH": "2025-12-02T05:57:05.169600", "MEAN_MOTION": 15.27830862, "ECCENTRICITY": 0.0005569, "INCLINATION": 97.2899, "RA_OF_ASC_NODE": 26.3307, "ARG_OF_PERICENTER": 108.2946, "MEAN_ANOMALY": 251.89, "EPHEMERIS_TYPE": 0, "CLASSIFICATION_TYPE": "U", "NORAD_CAT_ID": 57399, "ELEMENT_SET_NO": 999, "REV_AT_EPOCH": 13155, "BSTAR": 0.00033033458, "MEAN_MOTION_DOT": 8.91e-05, "MEAN_MOTION_DDOT": 0}, "tle": {"line1": "1 57399U 23101A   25336.24797650  .00008910  00000+0  33033-3 0  9991", "line2": "2 57399  97.2899  26.3307 0005569 108.2946 251.8900 15.27830862131557"}}, "geometry": {"type": "Point", "coordinates": [24.855799854996775, 13.76880712257388]}}, {"type": "Feature", "properties": {"norad_id": 57400, "name": "TIANMU-1 08", "group": "weather", "lat": -16.441701831048647, "lon": -155.71134500640113, "alt_km": 486.757399733915, "timestamp": "2025-12-02T13:52:16.919502+00:00", "meta": {"OBJECT_NAME": "TIANMU-1 08", "OBJECT_ID": "2023-101B", "EPOCH": "2025-12-02T08:17:57.062112", "MEAN_MOTION": 15.27817911, "ECCENTRICITY": 0.00074408, "INCLINATION": 97.2887, "RA_OF_ASC_NODE": 26.2263, "ARG_OF_PERICENTER": 113.2167, "MEAN_ANOMALY": 246.9857, "EPHEMERIS_TYPE": 0, "CLASSIFICATION_TYPE": "U", "NORAD_CAT_ID": 57400, "ELEMENT_SET_NO": 999, "REV_AT_EPOCH": 13156, "BSTAR": 0.00033942765, "MEAN_MOTION_DOT": 9.157e-05, "MEAN_MOTION_DDOT": 0}, "tle": {"line1": "1 57400U 23101B   25336.34579933  .00009157  00000+0  33943-3 0  9991", "line2": "2 57400  97.2887  26.2263 0007440 113.2167 246.9857 15.27817911131565"}}, "geometry": {"type": "Point", "coordinates": [-155.71134500640113, -16.441701831048647]}}]}